STARLINK-11709 [DTC]    
1 64065U 25107B   25345.48888170  .00349170  00000+0  25989-2 0  9997
2 64065  42.9991 270.1224 0000284 269.0146  91.0689 15.70957009 33425
STARLINK-11737 [DTC]    
1 64066U 25107C   25345.79086080  .00371604  00000+0  27490-2 0  9998
2 64066  42.9992 268.0773 0002258 251.9236 108.1386 15.71038826 33472
STARLINK-11726 [DTC]    
1 64067U 25107D   25346.16175973  .00298518  00000+0  22450-2 0  9994
2 64067  42.9997 265.6921 0001666 293.3089  66.7603 15.70864886 33534
STARLINK-11700 [DTC]    
1 64068U 25107E   25346.13625404  .00330555  00000+0  24755-2 0  9999
2 64068  42.9984 266.3823 0001167 335.4017  24.6795 15.70868869 33524
STARLINK-11649 [DTC]    
1 64069U 25107F   25346.15126533  .00217363  00000+0  16551-2 0  9997
2 64069  42.9988 266.5024 0001670 290.4412  69.6276 15.70817458 33523
STARLINK-11713 [DTC]    
1 64070U 25107G   25346.18299069  .00208547  00000+0  15885-2 0  9990
2 64070  42.9995 265.8618 0001960 244.0529 116.0137 15.70836960 33533
STARLINK-11719 [DTC]    
1 64071U 25107H   25346.19891551  .00191974  00000+0  14658-2 0  9998
2 64071  42.9989 265.9906 0002728 252.1648 107.8922 15.70830343 33532
STARLINK-11733 [DTC]    
1 64072U 25107J   25346.16707115  .00304428  00000+0  22895-2 0  9990
2 64072  42.9992 265.7321 0000733 322.5519  37.5297 15.70845352 33539
STARLINK-11729 [DTC]    
1 64073U 25107K   25346.14065448  .00400698  00000+0  29772-2 0  9992
2 64073  42.9992 266.4146 0001686 347.2024  12.8800 15.70847186 33528
STARLINK-11730 [DTC]    
1 64074U 25107L   25346.25718693  .00264930  00000+0  19909-2 0  9990
2 64074  42.9993 265.5627 0005134 240.0068 120.0290 15.70975955 33547
STARLINK-11723 [DTC]    
1 64075U 25107M   25346.11409860  .00281439  00000+0  21232-2 0  9994
2 64075  42.9989 266.1998 0001913 297.5584  62.5089 15.70842049 33523
STARLINK-11715 [DTC]    
1 64076U 25107N   25346.15644985  .00278632  00000+0  21019-2 0  9992
2 64076  42.9985 265.6472 0001542 264.5209  95.5483 15.70852449 33537
STARLINK-34201          
1 64077U 25107P   25346.24487826  .00053034  00000+0  19252-2 0  9995
2 64077  43.0021 335.6773 0001823 286.5068  73.5584 15.27540850 31653
STARLINK-34190          
1 64078U 25107Q   25346.28458755  .00035301  00000+0  12880-2 0  9996
2 64078  43.0058 335.1097 0002339 278.0258  82.0328 15.27532433 32759
STARLINK-34168          
1 64079U 25107R   25346.26658440  .00035716  00000+0  13015-2 0  9999
2 64079  43.0023 334.9741 0001268 268.7966  91.2740 15.27570106 32756
STARLINK-34098          
1 64080U 25107S   25346.27429290  .00040360  00000+0  14675-2 0  9995
2 64080  43.0031 335.0266 0002862 120.9085 239.2048 15.27594298 32756
