[{"OBJECT_NAME":"STARLINK-11709 [DTC]","OBJECT_ID":"2025-107B","EPOCH":"2025-12-11T11:43:59.378880","MEAN_MOTION":15.70957009,"ECCENTRICITY":2.845e-5,"INCLINATION":42.9991,"RA_OF_ASC_NODE":270.1224,"ARG_OF_PERICENTER":269.0146,"MEAN_ANOMALY":91.0689,"EPHEMERIS_TYPE":0,"CLASSIFICATION_TYPE":"U","NORAD_CAT_ID":64065,"ELEMENT_SET_NO":999,"REV_AT_EPOCH":3342,"BSTAR":0.0025989413,"MEAN_MOTION_DOT":0.0034917,"MEAN_MOTION_DDOT":0},{"OBJECT_NAME":"STARLINK-11737 [DTC]","OBJECT_ID":"2025-107C","EPOCH":"2025-12-11T18:58:50.373120","MEAN_MOTION":15.71038826,"ECCENTRICITY":0.00022582,"INCLINATION":42.9992,"RA_OF_ASC_NODE":268.0773,"ARG_OF_PERICENTER":251.9236,"MEAN_ANOMALY":108.1386,"EPHEMERIS_TYPE":0,"CLASSIFICATION_TYPE":"U","NORAD_CAT_ID":64066,"ELEMENT_SET_NO":999,"REV_AT_EPOCH":3347,"BSTAR":0.0027489708,"MEAN_MOTION_DOT":0.00371604,"MEAN_MOTION_DDOT":0},{"OBJECT_NAME":"STARLINK-11726 [DTC]","OBJECT_ID":"2025-107D","EPOCH":"2025-12-12T03:52:56.040672","MEAN_MOTION":15.70864886,"ECCENTRICITY":0.00016667,"INCLINATION":42.9997,"RA_OF_ASC_NODE":265.6921,"ARG_OF_PERICENTER":293.3089,"MEAN_ANOMALY":66.7603,"EPHEMERIS_TYPE":0,"CLASSIFICATION_TYPE":"U","NORAD_CAT_ID":64067,"ELEMENT_SET_NO":999,"REV_AT_EPOCH":3353,"BSTAR":0.002245013,"MEAN_MOTION_DOT":0.00298518,"MEAN_MOTION_DDOT":0},{"OBJECT_NAME":"STARLINK-11700 [DTC]","OBJECT_ID":"2025-107E","EPOCH":"2025-12-12T03:16:12.349056","MEAN_MOTION":15.70868869,"ECCENTRICITY":0.00011671,"INCLINATION":42.9984,"RA_OF_ASC_NODE":266.3823,"ARG_OF_PERICENTER":335.4017,"MEAN_ANOMALY":24.6795,"EPHEMERIS_TYPE":0,"CLASSIFICATION_TYPE":"U","NORAD_CAT_ID":64068,"ELEMENT_SET_NO":999,"REV_AT_EPOCH":3352,"BSTAR":0.0024754575,"MEAN_MOTION_DOT":0.00330555,"MEAN_MOTION_DDOT":0},{"OBJECT_NAME":"STARLINK-11649 [DTC]","OBJECT_ID":"2025-107F","EPOCH":"2025-12-12T03:37:49.324512","MEAN_MOTION":15.70817458,"ECCENTRICITY":0.000167,"INCLINATION":42.9988,"RA_OF_ASC_NODE":266.5024,"ARG_OF_PERICENTER":290.4412,"MEAN_ANOMALY":69.6276,"EPHEMERIS_TYPE":0,"CLASSIFICATION_TYPE":"U","NORAD_CAT_ID":64069,"ELEMENT_SET_NO":999,"REV_AT_EPOCH":3352,"BSTAR":0.0016550927,"MEAN_MOTION_DOT":0.00217363,"MEAN_MOTION_DDOT":0},{"OBJECT_NAME":"STARLINK-11713 [DTC]","OBJECT_ID":"2025-107G","EPOCH":"2025-12-12T04:23:30.395616","MEAN_MOTION":15.7083696,"ECCENTRICITY":0.00019607,"INCLINATION":42.9995,"RA_OF_ASC_NODE":265.8618,"ARG_OF_PERICENTER":244.0529,"MEAN_ANOMALY":116.0137,"EPHEMERIS_TYPE":0,"CLASSIFICATION_TYPE":"U","NORAD_CAT_ID":64070,"ELEMENT_SET_NO":999,"REV_AT_EPOCH":3353,"BSTAR":0.0015884875,"MEAN_MOTION_DOT":0.00208547,"MEAN_MOTION_DDOT":0},{"OBJECT_NAME":"STARLINK-11719 [DTC]","OBJECT_ID":"2025-107H","EPOCH":"2025-12-12T04:46:26.300064","MEAN_MOTION":15.70830343,"ECCENTRICITY":0.00027287,"INCLINATION":42.9989,"RA_OF_ASC_NODE":265.9906,"ARG_OF_PERICENTER":252.1648,"MEAN_ANOMALY":107.8922,"EPHEMERIS_TYPE":0,"CLASSIFICATION_TYPE":"U","NORAD_CAT_ID":64071,"ELEMENT_SET_NO":999,"REV_AT_EPOCH":3353,"BSTAR":0.0014657825,"MEAN_MOTION_DOT":0.00191974,"MEAN_MOTION_DDOT":0},{"OBJECT_NAME":"STARLINK-11733 [DTC]","OBJECT_ID":"2025-107J","EPOCH":"2025-12-12T04:00:34.947360","MEAN_MOTION":15.70845352,"ECCENTRICITY":7.33e-5,"INCLINATION":42.9992,"RA_OF_ASC_NODE":265.7321,"ARG_OF_PERICENTER":322.5519,"MEAN_ANOMALY":37.5297,"EPHEMERIS_TYPE":0,"CLASSIFICATION_TYPE":"U","NORAD_CAT_ID":64072,"ELEMENT_SET_NO":999,"REV_AT_EPOCH":3353,"BSTAR":0.0022895434,"MEAN_MOTION_DOT":0.00304428,"MEAN_MOTION_DDOT":0},{"OBJECT_NAME":"STARLINK-11729 [DTC]","OBJECT_ID":"2025-107K","EPOCH":"2025-12-12T03:22:32.547072","MEAN_MOTION":15.70847186,"ECCENTRICITY":0.00016868,"INCLINATION":42.9992,"RA_OF_ASC_NODE":266.4146,"ARG_OF_PERICENTER":347.2024,"MEAN_ANOMALY":12.88,"EPHEMERIS_TYPE":0,"CLASSIFICATION_TYPE":"U","NORAD_CAT_ID":64073,"ELEMENT_SET_NO":999,"REV_AT_EPOCH":3352,"BSTAR":0.0029772249,"MEAN_MOTION_DOT":0.00400698,"MEAN_MOTION_DDOT":0},{"OBJECT_NAME":"STARLINK-11730 [DTC]","OBJECT_ID":"2025-107L","EPOCH":"2025-12-12T06:10:20.950752","MEAN_MOTION":15.70975955,"ECCENTRICITY":0.00051348,"INCLINATION":42.9993,"RA_OF_ASC_NODE":265.5627,"ARG_OF_PERICENTER":240.0068,"MEAN_ANOMALY":120.029,"EPHEMERIS_TYPE":0,"CLASSIFICATION_TYPE":"U","NORAD_CAT_ID":64074,"ELEMENT_SET_NO":999,"REV_AT_EPOCH":3354,"BSTAR":0.0019908722,"MEAN_MOTION_DOT":0.0026493,"MEAN_MOTION_DDOT":0},{"OBJECT_NAME":"STARLINK-11723 [DTC]","OBJECT_ID":"2025-107M","EPOCH":"2025-12-12T02:44:18.119040","MEAN_MOTION":15.70842049,"ECCENTRICITY":0.0001913,"INCLINATION":42.9989,"RA_OF_ASC_NODE":266.1998,"ARG_OF_PERICENTER":297.5584,"MEAN_ANOMALY":62.5089,"EPHEMERIS_TYPE":0,"CLASSIFICATION_TYPE":"U","NORAD_CAT_ID":64075,"ELEMENT_SET_NO":999,"REV_AT_EPOCH":3352,"BSTAR":0.0021231839,"MEAN_MOTION_DOT":0.00281439,"MEAN_MOTION_DDOT":0},{"OBJECT_NAME":"STARLINK-11715 [DTC]","OBJECT_ID":"2025-107N","EPOCH":"2025-12-12T03:45:17.267040","MEAN_MOTION":15.70852449,"ECCENTRICITY":0.00015423,"INCLINATION":42.9985,"RA_OF_ASC_NODE":265.6472,"ARG_OF_PERICENTER":264.5209,"MEAN_ANOMALY":95.5483,"EPHEMERIS_TYPE":0,"CLASSIFICATION_TYPE":"U","NORAD_CAT_ID":64076,"ELEMENT_SET_NO":999,"REV_AT_EPOCH":3353,"BSTAR":0.0021018522,"MEAN_MOTION_DOT":0.00278632,"MEAN_MOTION_DDOT":0},{"OBJECT_NAME":"STARLINK-34201","OBJECT_ID":"2025-107P","EPOCH":"2025-12-12T05:52:37.481664","MEAN_MOTION":15.2754085,"ECCENTRICITY":0.0001823,"INCLINATION":43.0021,"RA_OF_ASC_NODE":335.6773,"ARG_OF_PERICENTER":286.5068,"MEAN_ANOMALY":73.5584,"EPHEMERIS_TYPE":0,"CLASSIFICATION_TYPE":"U","NORAD_CAT_ID":64077,"ELEMENT_SET_NO":999,"REV_AT_EPOCH":3165,"BSTAR":0.0019251815,"MEAN_MOTION_DOT":0.00053034,"MEAN_MOTION_DDOT":0},{"OBJECT_NAME":"STARLINK-34190","OBJECT_ID":"2025-107Q","EPOCH":"2025-12-12T06:49:48.364320","MEAN_MOTION":15.27532433,"ECCENTRICITY":0.00023392,"INCLINATION":43.0058,"RA_OF_ASC_NODE":335.1097,"ARG_OF_PERICENTER":278.0258,"MEAN_ANOMALY":82.0328,"EPHEMERIS_TYPE":0,"CLASSIFICATION_TYPE":"U","NORAD_CAT_ID":64078,"ELEMENT_SET_NO":999,"REV_AT_EPOCH":3275,"BSTAR":0.0012880237,"MEAN_MOTION_DOT":0.00035301,"MEAN_MOTION_DDOT":0},{"OBJECT_NAME":"STARLINK-34168","OBJECT_ID":"2025-107R","EPOCH":"2025-12-12T06:23:52.892160","MEAN_MOTION":15.27570106,"ECCENTRICITY":0.00012683,"INCLINATION":43.0023,"RA_OF_ASC_NODE":334.9741,"ARG_OF_PERICENTER":268.7966,"MEAN_ANOMALY":91.274,"EPHEMERIS_TYPE":0,"CLASSIFICATION_TYPE":"U","NORAD_CAT_ID":64079,"ELEMENT_SET_NO":999,"REV_AT_EPOCH":3275,"BSTAR":0.0013015486,"MEAN_MOTION_DOT":0.00035716,"MEAN_MOTION_DDOT":0},{"OBJECT_NAME":"STARLINK-34098","OBJECT_ID":"2025-107S","EPOCH":"2025-12-12T06:34:58.906560","MEAN_MOTION":15.27594298,"ECCENTRICITY":0.00028623,"INCLINATION":43.0031,"RA_OF_ASC_NODE":335.0266,"ARG_OF_PERICENTER":120.9085,"MEAN_ANOMALY":239.2048,"EPHEMERIS_TYPE":0,"CLASSIFICATION_TYPE":"U","NORAD_CAT_ID":64080,"ELEMENT_SET_NO":999,"REV_AT_EPOCH":3275,"BSTAR":0.0014674592,"MEAN_MOTION_DOT":0.0004036,"MEAN_MOTION_DDOT":0}]
